NORAD_CAT_ID,OBJECT_NAME,OBJECT_TYPE,EPOCH,MEAN_MOTION,ECCENTRICITY,INCLINATION,RA_OF_ASC_NODE,ARG_OF_PERICENTER,MEAN_ANOMALY,BSTAR,MEAN_MOTION_DOT,MEAN_MOTION_DDOT,TLE_LINE0,TLE_LINE1,TLE_LINE2,SEMIMAJOR_AXIS,PERIOD,APOGEE,PERIGEE,DECAYED
52340.0,STARLINK-3818,PAYLOAD,2023-12-07 03:49:18,15.08840985,0.0001887,53.2175,296.0961,93.7421,266.3787,-5.1181e-05,-1.103e-05,0.0,0 STARLINK-3818,1 52340U 22045K   23341.15924261 -.00001103  00000-0 -51181-4 0  9997,2 52340  53.2175 296.0961 0001887  93.7421 266.3787 15.08840985 91447,6917.877,95.437,541.048,538.437,0.0
52340.0,STARLINK-3818,PAYLOAD,2023-12-07 07:00:04,15.08841194,0.0001911,53.2176,295.497,106.4539,253.6663,-4.0614e-05,-9.35e-06,0.0,0 STARLINK-3818,1 52340U 22045K   23341.29172048 -.00000935  00000-0 -40614-4 0  9991,2 52340  53.2176 295.4970 0001911 106.4539 253.6663 15.08841194 91468,6917.877,95.437,541.064,538.42,0.0
52340.0,STARLINK-3818,PAYLOAD,2023-12-08 06:50:51,15.08840005,0.0001797,53.2168,291.0376,104.7293,255.3898,0.00014015,1.943e-05,0.0,0 STARLINK-3818,1 52340U 22045K   23342.28532325  .00001943  00000-0  14015-3 0  9992,2 52340  53.2168 291.0376 0001797 104.7293 255.3898 15.08840005 91617,6917.88,95.438,540.989,538.502,0.0
52340.0,STARLINK-3818,PAYLOAD,2023-12-09 06:41:38,15.08846202,0.0001724,53.2178,286.5771,103.8068,256.3116,0.00018751,2.698e-05,0.0,0 STARLINK-3818,1 52340U 22045K   23343.27891733  .00002698  00000-0  18751-3 0  9992,2 52340  53.2178 286.5771 0001724 103.8068 256.3116 15.08846202 91761,6917.861,95.437,540.919,538.534,0.0
52340.0,STARLINK-3818,PAYLOAD,2023-12-10 04:57:02,15.08835615,0.0001648,53.2165,282.411,92.0302,268.0879,-6.9859e-05,-1.4e-05,0.0,0 STARLINK-3818,1 52340U 22045K   23344.20628058 -.00001400  00000-0 -69859-4 0  9992,2 52340  53.2165 282.4110 0001648  92.0302 268.0879 15.08835615 91902,6917.894,95.438,540.899,538.619,0.0
52340.0,STARLINK-3818,PAYLOAD,2023-12-11 03:12:26,15.08844104,0.000155,53.2176,278.2534,93.9772,266.1398,2.7067e-05,1.43e-06,0.0,0 STARLINK-3818,1 52340U 22045K   23345.13364454  .00000143  00000-0  27067-4 0  9998,2 52340  53.2176 278.2534 0001550  93.9772 266.1398 15.08844104 92044,6917.868,95.437,540.805,538.661,0.0
52340.0,STARLINK-3818,PAYLOAD,2023-12-12 03:03:14,15.08841478,0.0001712,53.2178,273.7931,74.1102,286.0079,0.00014633,2.042e-05,0.0,0 STARLINK-3818,1 52340U 22045K   23346.12724664  .00002042  00000-0  14633-3 0  9995,2 52340  53.2178 273.7931 0001712  74.1102 286.0079 15.08841478 92199,6917.876,95.437,540.925,538.557,0.0
52340.0,STARLINK-3818,PAYLOAD,2023-12-13 01:18:37,15.08845642,0.00018,53.218,269.629,71.5724,288.5464,0.00011291,1.51e-05,0.0,0 STARLINK-3818,1 52340U 22045K   23347.05460594  .00001510  00000-0  11291-3 0  9993,2 52340  53.2180 269.6290 0001800  71.5724 288.5464 15.08845642 92331,6917.863,95.437,540.973,538.483,0.0
52340.0,STARLINK-3818,PAYLOAD,2023-12-14 01:09:23,15.0885756,0.0002417,53.2175,265.1719,152.0221,208.0902,0.00015636,2.202e-05,0.0,0 STARLINK-3818,1 52340U 22045K   23348.04818643  .00002202  00000-0  15636-3 0  9991,2 52340  53.2175 265.1719 0002417 152.0221 208.0902 15.08857560 92486,6917.827,95.436,541.364,538.02,0.0
52340.0,STARLINK-3818,PAYLOAD,2023-12-14 21:49:25,15.08836751,0.0001339,53.2179,261.2936,79.6001,280.5142,-0.00027002,-4.582e-05,0.0,0 STARLINK-3818,1 52340U 22045K   23348.90931898 -.00004582  00000-0 -27002-3 0  9999,2 52340  53.2179 261.2936 0001339  79.6001 280.5142 15.08836751 92615,6917.89,95.438,540.682,538.829,0.0
52340.0,STARLINK-3818,PAYLOAD,2023-12-15 01:00:10,15.08873925,0.0001409,53.2179,260.7046,114.1142,245.9997,-0.00046757,-7.729e-05,0.0,0 STARLINK-3818,1 52340U 22045K   23349.04179167 -.00007729  00000-0 -46757-3 0  9992,2 52340  53.2179 260.7046 0001409 114.1142 245.9997 15.08873925 92639,6917.777,95.435,540.616,538.667,0.0
52340.0,STARLINK-3818,PAYLOAD,2023-12-15 21:40:12,15.08830169,0.0002193,53.217,256.842,142.9595,217.1548,-8.6055e-05,-1.657e-05,0.0,0 STARLINK-3818,1 52340U 22045K   23349.90292643 -.00001657  00000-0 -86055-4 0  9992,2 52340  53.2170 256.8420 0002193 142.9595 217.1548 15.08830169 92764,6917.91,95.438,541.293,538.258,0.0
52340.0,STARLINK-3818,PAYLOAD,2023-12-16 00:50:59,15.08823928,0.0001565,53.2178,256.2497,109.6426,250.4735,4.0808e-05,3.61e-06,0.0,0 STARLINK-3818,1 52340U 22045K   23350.03540973  .00000361  00000-0  40808-4 0  9995,2 52340  53.2178 256.2497 0001565 109.6426 250.4735 15.08823928 92780,6917.93,95.439,540.877,538.712,0.0
52340.0,STARLINK-3818,PAYLOAD,2023-12-16 08:47:54,15.08831006,0.0001416,53.2174,254.7587,102.4349,257.6801,0.0001046,1.377e-05,0.0,0 STARLINK-3818,1 52340U 22045K   23350.36660709  .00001377  00000-0  10460-3 0  9999,2 52340  53.2174 254.7587 0001416 102.4349 257.6801 15.08831006 92834,6917.908,95.438,540.752,538.793,0.0
52340.0,STARLINK-3818,PAYLOAD,2023-12-16 21:31:00,15.08837432,0.0001165,53.217,252.3817,80.0203,280.092,4.527e-05,4.33e-06,0.0,0 STARLINK-3818,1 52340U 22045K   23350.89652879  .00000433  00000-0  45270-4 0  9996,2 52340  53.2170 252.3817 0001165  80.0203 280.0920 15.08837432 92911,6917.888,95.438,540.559,538.947,0.0
52340.0,STARLINK-3818,PAYLOAD,2023-12-17 00:41:46,15.08840915,0.0001369,53.2172,251.7865,101.6796,258.435,0.0001076,1.425e-05,0.0,0 STARLINK-3818,1 52340U 22045K   23351.02900524  .00001425  00000-0  10760-3 0  9992,2 52340  53.2172 251.7865 0001369 101.6796 258.4350 15.08840915 92930,6917.878,95.437,540.69,538.796,0.0
52340.0,STARLINK-3818,PAYLOAD,2023-12-17 21:21:47,15.08827332,0.000131,53.2173,247.9198,94.7907,265.3235,0.00040632,6.182e-05,0.0,0 STARLINK-3818,1 52340U 22045K   23351.89013069  .00006182  00000-0  40632-3 0  9992,2 52340  53.2173 247.9198 0001310  94.7907 265.3235 15.08827332 93061,6917.919,95.438,540.69,538.878,0.0
52340.0,STARLINK-3818,PAYLOAD,2023-12-17 22:57:09,15.08847912,0.0001528,53.2161,247.6259,117.1617,242.9531,0.00017976,2.575e-05,0.0,0 STARLINK-3818,1 52340U 22045K   23351.95636431  .00002575  00000-0  17976-3 0  9990,2 52340  53.2161 247.6259 0001528 117.1617 242.9531 15.08847912 93079,6917.856,95.437,540.778,538.664,0.0
52340.0,STARLINK-3818,PAYLOAD,2023-12-18 21:12:34,15.08838505,0.0001519,53.2163,243.4621,98.5767,261.5397,-1.8858e-05,-5.88e-06,0.0,0 STARLINK-3818,1 52340U 22045K   23352.88373099 -.00000588  00000-0 -18858-4 0  9996,2 52340  53.2163 243.4621 0001519  98.5767 261.5397 15.08838505 93217,6917.885,95.438,540.801,538.699,0.0
52340.0,STARLINK-3818,PAYLOAD,2023-12-19 00:23:20,15.08839767,0.0001574,53.2162,242.8666,92.2509,267.8663,7.912e-06,-1.62e-06,0.0,0 STARLINK-3818,1 52340U 22045K   23353.01621091 -.00000162  00000-0  79120-5 0  9997,2 52340  53.2162 242.8666 0001574  92.2509 267.8663 15.08839767 93232,6917.881,95.438,540.835,538.657,0.0
52340.0,STARLINK-3818,PAYLOAD,2023-12-20 00:14:08,15.08841105,0.0001879,53.2163,238.4102,70.803,289.3165,-1.6505e-05,-5.51e-06,0.0,0 STARLINK-3818,1 52340U 22045K   23354.00981546 -.00000551  00000-0 -16505-4 0  9991,2 52340  53.2163 238.4102 0001879  70.8030 289.3165 15.08841105 93389,6917.877,95.437,541.042,538.442,0.0
52340.0,STARLINK-3818,PAYLOAD,2023-12-20 22:29:32,15.08842165,0.00019,53.2159,234.2467,75.1232,284.9971,0.00035979,5.443e-05,0.0,0 STARLINK-3818,1 52340U 22045K   23354.93717681  .00005443  00000-0  35979-3 0  9998,2 52340  53.2159 234.2467 0001900  75.1232 284.9971 15.08842165 93528,6917.874,95.437,541.053,538.424,0.0
52340.0,STARLINK-3818,PAYLOAD,2023-12-21 22:20:19,15.08842469,0.0001589,53.2156,229.7863,92.4614,267.656,7.5786e-05,9.18e-06,0.0,0 STARLINK-3818,1 52340U 22045K   23355.93077590  .00000918  00000-0  75786-4 0  9990,2 52340  53.2156 229.7863 0001589  92.4614 267.6560 15.08842469 93678,6917.873,95.437,540.837,538.639,0.0
52340.0,STARLINK-3818,PAYLOAD,2023-12-22 22:11:05,15.08846814,0.0001576,53.2158,225.3206,101.9917,258.1252,1.7181e-05,-1.5e-07,0.0,0 STARLINK-3818,1 52340U 22045K   23356.92437253 -.00000015  00000-0  17181-4 0  9990,2 52340  53.2158 225.3206 0001576 101.9917 258.1252 15.08846814 93829,6917.86,95.437,540.815,538.634,0.0
52340.0,STARLINK-3818,PAYLOAD,2023-12-23 18:51:06,15.08840956,0.0001789,53.2166,221.4623,112.2126,247.9056,0.00011488,1.541e-05,0.0,0 STARLINK-3818,1 52340U 22045K   23357.78549633  .00001541  00000-0  11488-3 0  9998,2 52340  53.2166 221.4623 0001789 112.2126 247.9056 15.08840956 93954,6917.877,95.437,540.98,538.505,0.0
52340.0,STARLINK-3818,PAYLOAD,2023-12-23 20:26:30,15.08840814,0.0001759,53.2165,221.1648,111.2756,248.8424,0.00010612,1.401e-05,0.0,0 STARLINK-3818,1 52340U 22045K   23357.85173634  .00001401  00000-0  10612-3 0  9993,2 52340  53.2165 221.1648 0001759 111.2756 248.8424 15.08840814 93965,6917.878,95.438,540.96,538.526,0.0
52340.0,STARLINK-3818,PAYLOAD,2023-12-24 20:17:17,15.08841486,0.0001569,53.2168,216.7034,108.7602,251.356,6.4724e-05,7.42e-06,0.0,0 STARLINK-3818,1 52340U 22045K   23358.84533756  .00000742  00000-0  64724-4 0  9999,2 52340  53.2168 216.7034 0001569 108.7602 251.3560 15.08841486 94111,6917.876,95.437,540.826,538.655,0.0
52340.0,STARLINK-3818,PAYLOAD,2023-12-24 23:28:03,15.08824557,0.0001674,53.2168,216.1081,106.3304,253.7872,0.00035284,5.33e-05,0.0,0 STARLINK-3818,1 52340U 22045K   23358.97782203  .00005330  00000-0  35284-3 0  9992,2 52340  53.2168 216.1081 0001674 106.3304 253.7872 15.08824557 94131,6917.928,95.439,540.951,538.635,0.0
52340.0,STARLINK-3818,PAYLOAD,2023-12-25 21:43:29,15.08776658,0.0001701,53.2164,211.9447,84.8941,275.2245,0.00096612,0.00015095,0.0,0 STARLINK-3818,1 52340U 22045K   23359.90519996  .00015095  00000-0  96612-3 0  9994,2 52340  53.2164 211.9447 0001701  84.8941 275.2245 15.08776658 94270,6918.074,95.442,541.116,538.762,0.0
52340.0,STARLINK-3818,PAYLOAD,2023-12-26 00:54:13,15.088321,0.0001504,53.2169,211.3454,97.1905,262.9258,0.00021766,3.177e-05,0.0,0 STARLINK-3818,1 52340U 22045K   23360.03766163  .00003177  00000-0  21766-3 0  9996,2 52340  53.2169 211.3454 0001504  97.1905 262.9258 15.08832100 94299,6917.905,95.438,540.81,538.729,0.0
